start=new Date('2023-05-04T00:00:00.000Z').valueOf();
sats=[{"ECCENTRICITY":"0.00009720","INCLINATION":"53.2179","NORAD_CAT_ID":"49410","SITE":"AFETR","RCS_SIZE":"LARGE","CLASSIFICATION_TYPE":"U","DECAY_DATE":null,"EPOCH":"2023-05-03T18:09:26.803872","MEAN_MOTION_DDOT":"0.0000000000000","GP_ID":"231197795","PERIOD":"95.437","FILE":"3900281","PERIAPSIS":"539.057","TLE_LINE2":"2 49410  53.2179 222.0487 0000972  69.8315 290.2781 15.08845122 81488","LAUNCH_DATE":"2021-11-13","SEMIMAJOR_AXIS":"6917.865","ARG_OF_PERICENTER":"69.8315","TLE_LINE1":"1 49410U 21104C   23123.75656023  .00009313  00000-0  60238-3 0  9999","REF_FRAME":"TEME","COUNTRY_CODE":"US","MEAN_ANOMALY":"290.2781","EPHEMERIS_TYPE":"0","TIME_SYSTEM":"UTC","OBJECT_ID":"2021-104C","OBJECT_NAME":"STARLINK-3147","BSTAR":"0.00060238000000","MEAN_MOTION":"15.08845122","CENTER_NAME":"EARTH","MEAN_MOTION_DOT":"0.00009313","RA_OF_ASC_NODE":"222.0487","MEAN_ELEMENT_THEORY":"SGP4","REV_AT_EPOCH":"8148","OBJECT_TYPE":"PAYLOAD","APOAPSIS":"540.402","ELEMENT_SET_NO":"999"},{"PERIAPSIS":"538.990","TLE_LINE2":"2 49411  53.2163 212.6714 0001102 102.6712 257.4404 15.08837778 81602","ECCENTRICITY":"0.00011020","INCLINATION":"53.2163","NORAD_CAT_ID":"49411","SITE":"AFETR","RCS_SIZE":"LARGE","EPOCH":"2023-05-03T14:49:24.258432","DECAY_DATE":null,"CLASSIFICATION_TYPE":"U","MEAN_MOTION_DDOT":"0.0000000000000","FILE":"3900281","GP_ID":"231197045","PERIOD":"95.438","COUNTRY_CODE":"US","EPHEMERIS_TYPE":"0","MEAN_ANOMALY":"257.4404","TIME_SYSTEM":"UTC","LAUNCH_DATE":"2021-11-13","SEMIMAJOR_AXIS":"6917.887","ARG_OF_PERICENTER":"102.6712","TLE_LINE1":"1 49411U 21104D   23123.61764188  .00001394  00000-0  10564-3 0  9995","REF_FRAME":"TEME","BSTAR":"0.00010564000000","MEAN_MOTION":"15.08837778","CENTER_NAME":"EARTH","OBJECT_ID":"2021-104D","OBJECT_NAME":"STARLINK-3162","APOAPSIS":"540.515","ELEMENT_SET_NO":"999","MEAN_MOTION_DOT":"0.00001394","RA_OF_ASC_NODE":"212.6714","MEAN_ELEMENT_THEORY":"SGP4","REV_AT_EPOCH":"8160","OBJECT_TYPE":"PAYLOAD"},{"INCLINATION":"53.2157","NORAD_CAT_ID":"49412","ECCENTRICITY":"0.00008740","MEAN_MOTION_DDOT":"0.0000000000000","FILE":"3899966","GP_ID":"231165500","PERIOD":"95.438","SITE":"AFETR","RCS_SIZE":"LARGE","CLASSIFICATION_TYPE":"U","DECAY_DATE":null,"EPOCH":"2023-05-03T13:28:35.356512","PERIAPSIS":"539.143","TLE_LINE2":"2 49412  53.2157 222.9197 0000874  82.2011 277.9080 15.08839345 81468","SEMIMAJOR_AXIS":"6917.882","LAUNCH_DATE":"2021-11-13","REF_FRAME":"TEME","ARG_OF_PERICENTER":"82.2011","TLE_LINE1":"1 49412U 21104E   23123.56152033  .00000271  00000-0  35104-4 0  9991","EPHEMERIS_TYPE":"0","MEAN_ANOMALY":"277.9080","COUNTRY_CODE":"US","TIME_SYSTEM":"UTC","OBJECT_NAME":"STARLINK-3144","OBJECT_ID":"2021-104E","MEAN_MOTION":"15.08839345","CENTER_NAME":"EARTH","BSTAR":"0.00003510400000","MEAN_MOTION_DOT":"0.00000271","RA_OF_ASC_NODE":"222.9197","MEAN_ELEMENT_THEORY":"SGP4","REV_AT_EPOCH":"8146","OBJECT_TYPE":"PAYLOAD","APOAPSIS":"540.352","ELEMENT_SET_NO":"999"},{"MEAN_MOTION":"15.08848660","CENTER_NAME":"EARTH","BSTAR":"0.00049564000000","OBJECT_NAME":"STARLINK-3157","OBJECT_ID":"2021-104F","APOAPSIS":"540.204","ELEMENT_SET_NO":"999","MEAN_MOTION_DOT":"0.00007611","MEAN_ELEMENT_THEORY":"SGP4","RA_OF_ASC_NODE":"212.3962","REV_AT_EPOCH":"8161","OBJECT_TYPE":"PAYLOAD","PERIAPSIS":"539.234","TLE_LINE2":"2 49413  53.2172 212.3962 0000701  85.4021 274.7051 15.08848660 81614","INCLINATION":"53.2172","NORAD_CAT_ID":"49413","ECCENTRICITY":"0.00007010","MEAN_MOTION_DDOT":"0.0000000000000","PERIOD":"95.437","GP_ID":"231197546","FILE":"3900281","RCS_SIZE":"LARGE","SITE":"AFETR","CLASSIFICATION_TYPE":"U","DECAY_DATE":null,"EPOCH":"2023-05-03T16:20:51.784224","EPHEMERIS_TYPE":"0","MEAN_ANOMALY":"274.7051","COUNTRY_CODE":"US","TIME_SYSTEM":"UTC","SEMIMAJOR_AXIS":"6917.854","LAUNCH_DATE":"2021-11-13","REF_FRAME":"TEME","ARG_OF_PERICENTER":"85.4021","TLE_LINE1":"1 49413U 21104F   23123.68115491  .00007611  00000-0  49564-3 0  9991"},{"OBJECT_NAME":"STARLINK-3146","OBJECT_ID":"2021-104G","MEAN_MOTION":"15.08841394","CENTER_NAME":"EARTH","BSTAR":"0.00027591000000","MEAN_MOTION_DOT":"0.00004106","MEAN_ELEMENT_THEORY":"SGP4","RA_OF_ASC_NODE":"222.6614","REV_AT_EPOCH":"8146","OBJECT_TYPE":"PAYLOAD","APOAPSIS":"540.389","ELEMENT_SET_NO":"999","INCLINATION":"53.2158","NORAD_CAT_ID":"49414","ECCENTRICITY":"0.00009370","MEAN_MOTION_DDOT":"0.0000000000000","GP_ID":"231198295","FILE":"3900281","PERIOD":"95.437","RCS_SIZE":"LARGE","SITE":"AFETR","DECAY_DATE":null,"CLASSIFICATION_TYPE":"U","EPOCH":"2023-05-03T14:53:22.469280","PERIAPSIS":"539.093","TLE_LINE2":"2 49414  53.2158 222.6614 0000937  99.4217 260.6881 15.08841394 81465","SEMIMAJOR_AXIS":"6917.876","LAUNCH_DATE":"2021-11-13","REF_FRAME":"TEME","ARG_OF_PERICENTER":"99.4217","TLE_LINE1":"1 49414U 21104G   23123.62039895  .00004106  00000-0  27591-3 0  9991","MEAN_ANOMALY":"260.6881","EPHEMERIS_TYPE":"0","COUNTRY_CODE":"US","TIME_SYSTEM":"UTC"},{"OBJECT_TYPE":"PAYLOAD","MEAN_ELEMENT_THEORY":"SGP4","RA_OF_ASC_NODE":"212.7065","REV_AT_EPOCH":"8159","MEAN_MOTION_DOT":"0.00003223","ELEMENT_SET_NO":"999","APOAPSIS":"540.426","OBJECT_ID":"2021-104H","OBJECT_NAME":"STARLINK-3159","BSTAR":"0.00022045000000","CENTER_NAME":"EARTH","MEAN_MOTION":"15.08844899","TLE_LINE1":"1 49415U 21104H   23123.61027758  .00003223  00000-0  22045-3 0  9994","ARG_OF_PERICENTER":"97.5426","REF_FRAME":"TEME","LAUNCH_DATE":"2021-11-13","SEMIMAJOR_AXIS":"6917.865","TIME_SYSTEM":"UTC","COUNTRY_CODE":"US","MEAN_ANOMALY":"262.5681","EPHEMERIS_TYPE":"0","CLASSIFICATION_TYPE":"U","DECAY_DATE":null,"EPOCH":"2023-05-03T14:38:47.982912","RCS_SIZE":"LARGE","SITE":"AFETR","PERIOD":"95.437","GP_ID":"231196546","FILE":"3900281","MEAN_MOTION_DDOT":"0.0000000000000","ECCENTRICITY":"0.00010060","NORAD_CAT_ID":"49415","INCLINATION":"53.2174","TLE_LINE2":"2 49415  53.2174 212.7065 0001006  97.5426 262.5681 15.08844899 81599","PERIAPSIS":"539.034"},{"PERIOD":"95.438","GP_ID":"231196796","FILE":"3900281","MEAN_MOTION_DDOT":"0.0000000000000","CLASSIFICATION_TYPE":"U","DECAY_DATE":null,"EPOCH":"2023-05-03T17:53:32.795808","RCS_SIZE":"LARGE","SITE":"AFETR","NORAD_CAT_ID":"49416","INCLINATION":"53.2160","ECCENTRICITY":"0.00014180","TLE_LINE2":"2 49416  53.2160 222.0998 0001418 120.0566 240.0567 15.08837091 81486","PERIAPSIS":"538.773","REF_FRAME":"TEME","TLE_LINE1":"1 49416U 21104J   23123.74551847  .00003595  00000-0  24389-3 0  9995","ARG_OF_PERICENTER":"120.0566","SEMIMAJOR_AXIS":"6917.889","LAUNCH_DATE":"2021-11-13","TIME_SYSTEM":"UTC","EPHEMERIS_TYPE":"0","MEAN_ANOMALY":"240.0567","COUNTRY_CODE":"US","OBJECT_NAME":"STARLINK-3133","OBJECT_ID":"2021-104J","CENTER_NAME":"EARTH","MEAN_MOTION":"15.08837091","BSTAR":"0.00024389000000","OBJECT_TYPE":"PAYLOAD","MEAN_ELEMENT_THEORY":"SGP4","REV_AT_EPOCH":"8148","RA_OF_ASC_NODE":"222.0998","MEAN_MOTION_DOT":"0.00003595","ELEMENT_SET_NO":"999","APOAPSIS":"540.735"},{"ECCENTRICITY":"0.00010230","NORAD_CAT_ID":"49417","INCLINATION":"53.2159","EPOCH":"2023-05-03T14:33:29.992032","DECAY_DATE":null,"CLASSIFICATION_TYPE":"U","RCS_SIZE":"LARGE","SITE":"AFETR","FILE":"3900281","GP_ID":"231198046","PERIOD":"95.437","MEAN_MOTION_DDOT":"0.0000000000000","PERIAPSIS":"539.016","TLE_LINE2":"2 49417  53.2159 212.7245 0001023  79.6033 280.5074 15.08847085 81594","LAUNCH_DATE":"2021-11-13","SEMIMAJOR_AXIS":"6917.859","TLE_LINE1":"1 49417U 21104K   23123.60659713  .00003112  00000-0  21348-3 0  9999","ARG_OF_PERICENTER":"79.6033","REF_FRAME":"TEME","COUNTRY_CODE":"US","MEAN_ANOMALY":"280.5074","EPHEMERIS_TYPE":"0","TIME_SYSTEM":"UTC","OBJECT_ID":"2021-104K","OBJECT_NAME":"STARLINK-3154","BSTAR":"0.00021348000000","CENTER_NAME":"EARTH","MEAN_MOTION":"15.08847085","MEAN_ELEMENT_THEORY":"SGP4","REV_AT_EPOCH":"8159","RA_OF_ASC_NODE":"212.7245","MEAN_MOTION_DOT":"0.00003112","OBJECT_TYPE":"PAYLOAD","APOAPSIS":"540.431","ELEMENT_SET_NO":"999"},{"BSTAR":"0.00028102000000","MEAN_MOTION":"15.08840929","CENTER_NAME":"EARTH","OBJECT_ID":"2021-104L","OBJECT_NAME":"STARLINK-3111","APOAPSIS":"540.456","ELEMENT_SET_NO":"999","MEAN_MOTION_DOT":"0.00004188","MEAN_ELEMENT_THEORY":"SGP4","RA_OF_ASC_NODE":"222.4130","REV_AT_EPOCH":"8146","OBJECT_TYPE":"PAYLOAD","PERIAPSIS":"539.029","TLE_LINE2":"2 49418  53.2156 222.4130 0001032  85.7367 274.3743 15.08840929 81461","ECCENTRICITY":"0.00010320","INCLINATION":"53.2156","NORAD_CAT_ID":"49418","RCS_SIZE":"LARGE","SITE":"AFETR","EPOCH":"2023-05-03T16:12:51.541920","DECAY_DATE":null,"CLASSIFICATION_TYPE":"U","MEAN_MOTION_DDOT":"0.0000000000000","FILE":"3900281","GP_ID":"231197796","PERIOD":"95.437","COUNTRY_CODE":"US","EPHEMERIS_TYPE":"0","MEAN_ANOMALY":"274.3743","TIME_SYSTEM":"UTC","LAUNCH_DATE":"2021-11-13","SEMIMAJOR_AXIS":"6917.878","ARG_OF_PERICENTER":"85.7367","TLE_LINE1":"1 49418U 21104L   23123.67559655  .00004188  00000-0  28102-3 0  9990","REF_FRAME":"TEME"},{"OBJECT_TYPE":"PAYLOAD","RA_OF_ASC_NODE":"222.7595","MEAN_ELEMENT_THEORY":"SGP4","REV_AT_EPOCH":"8145","MEAN_MOTION_DOT":"0.00003679","ELEMENT_SET_NO":"999","APOAPSIS":"540.330","OBJECT_ID":"2021-104M","OBJECT_NAME":"STARLINK-3120","BSTAR":"0.00024905000000","CENTER_NAME":"EARTH","MEAN_MOTION":"15.08844663","TLE_LINE1":"1 49419U 21104M   23123.59832278  .00003679  00000-0  24905-3 0  9998","ARG_OF_PERICENTER":"78.7841","REF_FRAME":"TEME","LAUNCH_DATE":"2021-11-13","SEMIMAJOR_AXIS":"6917.866","TIME_SYSTEM":"UTC","COUNTRY_CODE":"US","EPHEMERIS_TYPE":"0","MEAN_ANOMALY":"281.3248","DECAY_DATE":null,"EPOCH":"2023-05-03T14:21:35.088192","CLASSIFICATION_TYPE":"U","SITE":"AFETR","RCS_SIZE":"LARGE","PERIOD":"95.437","GP_ID":"231197046","FILE":"3900281","MEAN_MOTION_DDOT":"0.0000000000000","ECCENTRICITY":"0.00008660","NORAD_CAT_ID":"49419","INCLINATION":"53.2161","TLE_LINE2":"2 49419  53.2161 222.7595 0000866  78.7841 281.3248 15.08844663 81455","PERIAPSIS":"539.132"}];
